GPS BIIA-23 (PRN 18)    
1 22877U 93068A   18134.47341484 -.00000012  00000-0  00000+0 0  9997
2 22877  54.4051  84.8879 0142901  74.4373 101.1659  2.00565091179879
GPS BIIR-2  (PRN 13)    
1 24876U 97035A   18134.12377183  .00000038  00000-0  00000+0 0  9990
2 24876  55.4911 214.1042 0031854  90.9788 269.4512  2.00565127152465
GPS BIIR-3  (PRN 11)    
1 25933U 99055A   18134.46157057 -.00000050  00000-0  00000+0 0  9997
2 25933  51.8660  63.1601 0166052 100.9069  68.2816  2.00567844136290
GPS BIIR-4  (PRN 20)    
1 26360U 00025A   18134.34117551  .00000083  00000-0  00000+0 0  9998
2 26360  53.1916 141.0758 0040384 112.5224  36.9730  2.00426892131978
GPS BIIR-5  (PRN 28)    
1 26407U 00040A   18134.49475334 -.00000037  00000-0  00000+0 0  9999
2 26407  56.4978 332.2108 0196998 272.8909 307.5725  2.00563353130659
GPS BIIR-6  (PRN 14)    
1 26605U 00071A   18134.40437125  .00000043  00000-0  00000+0 0  9996
2 26605  55.0641 211.6982 0099777 248.4527 169.8909  2.00553193128250
GPS BIIR-8  (PRN 16)    
1 27663U 03005A   18134.52072291 -.00000036  00000-0  00000+0 0  9996
2 27663  56.5626 331.9660 0099283  28.0961 330.2361  2.00569017112025
GPS BIIR-9  (PRN 21)    
1 27704U 03010A   18133.90945250 -.00000012  00000-0  00000+0 0  9997
2 27704  54.0748  84.5084 0246758 270.6028 326.3693  2.00559114110805
GPS BIIR-10 (PRN 22)    
1 28129U 03058A   18134.31296096  .00000085  00000-0  00000+0 0  9993
2 28129  53.0045 143.9400 0076088 271.4203  87.7509  2.00546574105511
GPS BIIR-11 (PRN 19)    
1 28190U 04009A   18134.25206031 -.00000064  00000-0  00000+0 0  9999
2 28190  56.1589  32.8403 0096560  66.9748 246.0028  2.00559316103694
GPS BIIR-12 (PRN 23)    
1 28361U 04023A   18134.53230117  .00000050  00000-0  00000+0 0  9992
2 28361  54.0629 206.4673 0126284 225.1086 208.3439  2.00548489101789
GPS BIIR-13 (PRN 02)    
1 28474U 04045A   18134.31269016 -.00000014  00000-0  00000+0 0  9998
2 28474  54.4446  84.0920 0181240 253.6977  19.9867  2.00556147 99145
GPS BIIRM-1 (PRN 17)    
1 28874U 05038A   18134.18004479 -.00000064  00000-0  00000+0 0  9995
2 28874  56.3016  30.1491 0125804 258.4614  22.1304  2.00577549 92541
GPS BIIRM-2 (PRN 31)    
1 29486U 06042A   18134.39032808 -.00000022  00000-0  00000+0 0  9995
2 29486  55.1995 269.0220 0087828 351.1317   8.0164  2.00565367 85253
GPS BIIRM-3 (PRN 12)    
1 29601U 06052A   18133.83844209 -.00000034  00000-0  00000+0 0  9992
2 29601  56.5384 330.9098 0070052  54.8020 305.8827  2.00573322 84162
GPS BIIRM-4 (PRN 15)    
1 32260U 07047A   18134.15538421  .00000053  00000-0  00000+0 0  9994
2 32260  53.1874 202.5350 0100895  37.7811 323.0057  2.00555620 77559
GPS BIIRM-5 (PRN 29)    
1 32384U 07062A   18134.38335625 -.00000063  00000-0  00000+0 0  9996
2 32384  56.3747  30.7474 0005555  51.1304 247.8480  2.00561334 76283
GPS BIIRM-6 (PRN 07)    
1 32711U 08012A   18134.06751016 -.00000023  00000-0  00000+0 0  9993
2 32711  54.9330 268.3222 0117032 215.7569 143.4307  2.00564231 74460
GPS BIIRM-8 (PRN 05)    
1 35752U 09043A   18134.14478024  .00000091  00000-0  00000+0 0  9994
2 35752  54.3121 146.0916 0052133  32.7904  53.6121  2.00560132 64058
GPS BIIF-1  (PRN 25)    
1 36585U 10022A   18134.13316730 -.00000035  00000-0  00000+0 0  9991
2 36585  55.8306 327.4840 0073116  47.7958 132.1171  2.00566890 58298
GPS BIIF-2  (PRN 01)    
1 37753U 11036A   18134.51378215 -.00000006  00000-0  00000+0 0  9991
2 37753  55.6448  87.5700 0076135  34.3620 147.3993  2.00564052 49986
GPS BIIF-3  (PRN 24)    
1 38833U 12053A   18134.24866603 -.00000022  00000-0  00000+0 0  9992
2 38833  53.9624 264.9055 0068137  29.6187 330.7422  2.00566208 41055
GPS BIIF-4  (PRN 27)    
1 39166U 13023A   18134.10543213 -.00000064  00000-0  00000+0 0  9990
2 39166  55.9998  27.0592 0058303  21.5502 338.7350  2.00562864 36585
GPS BIIF-5  (PRN 30)    
1 39533U 14008A   18134.10424391 -.00000025  00000-0  00000+0 0  9994
2 39533  54.1083 270.2561 0033945 186.5816 173.3485  2.00555496 30941
GPS BIIF-6  (PRN 06)    
1 39741U 14026A   18133.88622065 -.00000005  00000-0  00000+0 0  9995
2 39741  55.6283  87.1177 0014018 293.2668  66.5543  2.00569462 29224
GPS BIIF-7  (PRN 09)    
1 40105U 14045A   18134.47752099  .00000051  00000-0  00000+0 0  9999
2 40105  54.5885 206.5560 0007485 111.3381 248.8205  2.00568894 27687
GPS BIIF-8  (PRN 03)    
1 40294U 14068A   18134.34661697  .00000092  00000-0  00000+0 0  9997
2 40294  55.0629 147.3236 0012770  14.8275 345.2600  2.00553290 25900
GPS BIIF-9  (PRN 26)    
1 40534U 15013A   18133.98486020 -.00000037  00000-0  00000+0 0  9999
2 40534  54.7734 326.2461 0027785   2.2936 357.7397  2.00565674 22968
GPS BIIF-10  (PRN 08)   
1 40730U 15033A   18134.15067373 -.00000065  00000-0  00000+0 0  9996
2 40730  55.5306  26.5790 0035936 331.0730  28.7696  2.00576583 20727
GPS BIIF-11  (PRN 10)   
1 41019U 15062A   18134.19833686  .00000093  00000-0  00000+0 0  9991
2 41019  55.0683 147.1311 0036127 206.0404 153.8276  2.00564314 18542
GPS BIIF-12  (PRN 32)   
1 41328U 16007A   18134.28583326  .00000050  00000-0  00000+0 0  9990
2 41328  54.8398 206.8443 0022203 217.4036 142.5190  2.00564488 16608
